[{"OBJECT_NAME":"STARLINK-31002","OBJECT_ID":"2023-186Y","EPOCH":"2026-03-09T00:54:12.084768","MEAN_MOTION":15.27578882,"ECCENTRICITY":4.64e-5,"INCLINATION":43.0003,"RA_OF_ASC_NODE":67.5594,"ARG_OF_PERICENTER":274.1731,"MEAN_ANOMALY":85.9067,"EPHEMERIS_TYPE":0,"CLASSIFICATION_TYPE":"U","NORAD_CAT_ID":58495,"ELEMENT_SET_NO":999,"REV_AT_EPOCH":12595,"BSTAR":0.00010562756,"MEAN_MOTION_DOT":2.646e-5,"MEAN_MOTION_DDOT":0},{"OBJECT_NAME":"FLOCK 4G-14","OBJECT_ID":"2025-009BL","EPOCH":"2026-03-09T18:12:31.432032","MEAN_MOTION":15.27197201,"ECCENTRICITY":0.00030064,"INCLINATION":97.4064,"RA_OF_ASC_NODE":151.1836,"ARG_OF_PERICENTER":318.3639,"MEAN_ANOMALY":41.7371,"EPHEMERIS_TYPE":0,"CLASSIFICATION_TYPE":"U","NORAD_CAT_ID":62667,"ELEMENT_SET_NO":999,"REV_AT_EPOCH":6371,"BSTAR":0.00042675627,"MEAN_MOTION_DOT":0.0001131,"MEAN_MOTION_DDOT":0}]
