STARLINK-31002          
1 58495U 23186Y   26068.03763987  .00002646  00000+0  10563-3 0  9991
2 58495  43.0003  67.5594 0000464 274.1731  85.9067 15.27578882125958
FLOCK 4G-14             
1 62667U 25009BL  26068.75869712  .00011310  00000+0  42676-3 0  9993
2 62667  97.4064 151.1836 0003006 318.3639  41.7371 15.27197201 63711
